CCSDS_OMM_VERS = 2.0
CREATION_DATE  = 
ORIGINATOR     = 

OBJECT_NAME    = STARLINK-35580
OBJECT_ID      = 2025-240K
CENTER_NAME    = EARTH
REF_FRAME      = TEME
TIME_SYSTEM    = UTC
MEAN_ELEMENT_THEORY = SGP/SGP4

EPOCH          = 2025-11-15T20:00:01.999008
MEAN_MOTION    = 15.49335615
ECCENTRICITY   = .0001147
INCLINATION    = 53.1598
RA_OF_ASC_NODE = 233.4597
ARG_OF_PERICENTER = 94.2718
MEAN_ANOMALY   = 175.9889

EPHEMERIS_TYPE = 0
CLASSIFICATION_TYPE = U
NORAD_CAT_ID   = 66155
ELEMENT_SET_NO = 999
REV_AT_EPOCH   = 457
BSTAR          = -.14261E-2
MEAN_MOTION_DOT = -.79039E-3
MEAN_MOTION_DDOT = 0

CCSDS_OMM_VERS = 2.0
CREATION_DATE  = 
ORIGINATOR     = 

OBJECT_NAME    = STARLINK-35621
OBJECT_ID      = 2025-240L
CENTER_NAME    = EARTH
REF_FRAME      = TEME
TIME_SYSTEM    = UTC
MEAN_ELEMENT_THEORY = SGP/SGP4

EPOCH          = 2025-11-15T20:00:01.999008
MEAN_MOTION    = 15.49326431
ECCENTRICITY   = .0001318
INCLINATION    = 53.1597
RA_OF_ASC_NODE = 233.4563
ARG_OF_PERICENTER = 96.2239
MEAN_ANOMALY   = 175.9520

EPHEMERIS_TYPE = 0
CLASSIFICATION_TYPE = U
NORAD_CAT_ID   = 66156
ELEMENT_SET_NO = 999
REV_AT_EPOCH   = 457
BSTAR          = -.10455E-2
MEAN_MOTION_DOT = -.58202E-3
MEAN_MOTION_DDOT = 0

CCSDS_OMM_VERS = 2.0
CREATION_DATE  = 
ORIGINATOR     = 

OBJECT_NAME    = STARLINK-35594
OBJECT_ID      = 2025-240M
CENTER_NAME    = EARTH
REF_FRAME      = TEME
TIME_SYSTEM    = UTC
MEAN_ELEMENT_THEORY = SGP/SGP4

EPOCH          = 2025-11-15T20:00:01.999008
MEAN_MOTION    = 15.49275171
ECCENTRICITY   = .0001059
INCLINATION    = 53.1598
RA_OF_ASC_NODE = 233.4524
ARG_OF_PERICENTER = 117.1122
MEAN_ANOMALY   = 156.8669

EPHEMERIS_TYPE = 0
CLASSIFICATION_TYPE = U
NORAD_CAT_ID   = 66157
ELEMENT_SET_NO = 999
REV_AT_EPOCH   = 457
BSTAR          = .11893E-2
MEAN_MOTION_DOT = .6618E-3
MEAN_MOTION_DDOT = 0

CCSDS_OMM_VERS = 2.0
CREATION_DATE  = 
ORIGINATOR     = 

OBJECT_NAME    = STARLINK-35587
OBJECT_ID      = 2025-240N
CENTER_NAME    = EARTH
REF_FRAME      = TEME
TIME_SYSTEM    = UTC
MEAN_ELEMENT_THEORY = SGP/SGP4

EPOCH          = 2025-11-15T20:00:01.999008
MEAN_MOTION    = 15.48303247
ECCENTRICITY   = .0001018
INCLINATION    = 53.1597
RA_OF_ASC_NODE = 233.4484
ARG_OF_PERICENTER = 92.0564
MEAN_ANOMALY   = 183.5162

EPHEMERIS_TYPE = 0
CLASSIFICATION_TYPE = U
NORAD_CAT_ID   = 66158
ELEMENT_SET_NO = 999
REV_AT_EPOCH   = 457
BSTAR          = -.43641E-1
MEAN_MOTION_DOT = -.2081908E-1
MEAN_MOTION_DDOT = 0

CCSDS_OMM_VERS = 2.0
CREATION_DATE  = 
ORIGINATOR     = 

OBJECT_NAME    = STARLINK-35586
OBJECT_ID      = 2025-240P
CENTER_NAME    = EARTH
REF_FRAME      = TEME
TIME_SYSTEM    = UTC
MEAN_ELEMENT_THEORY = SGP/SGP4

EPOCH          = 2025-11-15T20:00:01.999008
MEAN_MOTION    = 15.49335044
ECCENTRICITY   = .0001367
INCLINATION    = 53.1598
RA_OF_ASC_NODE = 233.4444
ARG_OF_PERICENTER = 91.3716
MEAN_ANOMALY   = 186.5586

EPHEMERIS_TYPE = 0
CLASSIFICATION_TYPE = U
NORAD_CAT_ID   = 66159
ELEMENT_SET_NO = 999
REV_AT_EPOCH   = 457
BSTAR          = -.1379E-2
MEAN_MOTION_DOT = -.76467E-3
MEAN_MOTION_DDOT = 0

CCSDS_OMM_VERS = 2.0
CREATION_DATE  = 
ORIGINATOR     = 

OBJECT_NAME    = STARLINK-35636
OBJECT_ID      = 2025-240Q
CENTER_NAME    = EARTH
REF_FRAME      = TEME
TIME_SYSTEM    = UTC
MEAN_ELEMENT_THEORY = SGP/SGP4

EPOCH          = 2025-11-15T20:00:01.999008
MEAN_MOTION    = 15.47328723
ECCENTRICITY   = .0001047
INCLINATION    = 53.1601
RA_OF_ASC_NODE = 233.4387
ARG_OF_PERICENTER = 112.4240
MEAN_ANOMALY   = 167.7022

EPHEMERIS_TYPE = 0
CLASSIFICATION_TYPE = U
NORAD_CAT_ID   = 66160
ELEMENT_SET_NO = 999
REV_AT_EPOCH   = 457
BSTAR          = -.45623E-1
MEAN_MOTION_DOT = -.2100764E-1
MEAN_MOTION_DDOT = 0

CCSDS_OMM_VERS = 2.0
CREATION_DATE  = 
ORIGINATOR     = 

OBJECT_NAME    = STARLINK-35635
OBJECT_ID      = 2025-240R
CENTER_NAME    = EARTH
REF_FRAME      = TEME
TIME_SYSTEM    = UTC
MEAN_ELEMENT_THEORY = SGP/SGP4

EPOCH          = 2025-11-15T20:00:01.999008
MEAN_MOTION    = 15.44219630
ECCENTRICITY   = .0001263
INCLINATION    = 53.1597
RA_OF_ASC_NODE = 233.4601
ARG_OF_PERICENTER = 108.0990
MEAN_ANOMALY   = 161.3648

EPHEMERIS_TYPE = 0
CLASSIFICATION_TYPE = U
NORAD_CAT_ID   = 66161
ELEMENT_SET_NO = 999
REV_AT_EPOCH   = 457
BSTAR          = -.49563E-1
MEAN_MOTION_DOT = -.2054953E-1
MEAN_MOTION_DDOT = 0

CCSDS_OMM_VERS = 2.0
CREATION_DATE  = 
ORIGINATOR     = 

OBJECT_NAME    = STARLINK-35633
OBJECT_ID      = 2025-240S
CENTER_NAME    = EARTH
REF_FRAME      = TEME
TIME_SYSTEM    = UTC
MEAN_ELEMENT_THEORY = SGP/SGP4

EPOCH          = 2025-11-15T20:00:01.999008
MEAN_MOTION    = 15.49533223
ECCENTRICITY   = .0000995
INCLINATION    = 53.1604
RA_OF_ASC_NODE = 233.0871
ARG_OF_PERICENTER = 146.1795
MEAN_ANOMALY   = 308.9990

EPHEMERIS_TYPE = 0
CLASSIFICATION_TYPE = U
NORAD_CAT_ID   = 66162
ELEMENT_SET_NO = 999
REV_AT_EPOCH   = 457
BSTAR          = -.86111E-2
MEAN_MOTION_DOT = -.456043E-2
MEAN_MOTION_DDOT = 0

CCSDS_OMM_VERS = 2.0
CREATION_DATE  = 
ORIGINATOR     = 

OBJECT_NAME    = STARLINK-35607
OBJECT_ID      = 2025-240T
CENTER_NAME    = EARTH
REF_FRAME      = TEME
TIME_SYSTEM    = UTC
MEAN_ELEMENT_THEORY = SGP/SGP4

EPOCH          = 2025-11-15T20:00:01.999008
MEAN_MOTION    = 15.49534730
ECCENTRICITY   = .0001004
INCLINATION    = 53.1603
RA_OF_ASC_NODE = 233.0834
ARG_OF_PERICENTER = 145.2056
MEAN_ANOMALY   = 311.8883

EPHEMERIS_TYPE = 0
CLASSIFICATION_TYPE = U
NORAD_CAT_ID   = 66163
ELEMENT_SET_NO = 999
REV_AT_EPOCH   = 457
BSTAR          = -.86759E-2
MEAN_MOTION_DOT = -.459305E-2
MEAN_MOTION_DDOT = 0

CCSDS_OMM_VERS = 2.0
CREATION_DATE  = 
ORIGINATOR     = 

OBJECT_NAME    = STARLINK-35614
OBJECT_ID      = 2025-240U
CENTER_NAME    = EARTH
REF_FRAME      = TEME
TIME_SYSTEM    = UTC
MEAN_ELEMENT_THEORY = SGP/SGP4

EPOCH          = 2025-11-15T20:00:01.999008
MEAN_MOTION    = 15.49612405
ECCENTRICITY   = .0000844
INCLINATION    = 53.1602
RA_OF_ASC_NODE = 233.0739
ARG_OF_PERICENTER = 110.6721
MEAN_ANOMALY   = 350.2219

EPHEMERIS_TYPE = 0
CLASSIFICATION_TYPE = U
NORAD_CAT_ID   = 66164
ELEMENT_SET_NO = 999
REV_AT_EPOCH   = 457
BSTAR          = -.91487E-2
MEAN_MOTION_DOT = -.484116E-2
MEAN_MOTION_DDOT = 0

CCSDS_OMM_VERS = 2.0
CREATION_DATE  = 
ORIGINATOR     = 

OBJECT_NAME    = STARLINK-35575
OBJECT_ID      = 2025-240V
CENTER_NAME    = EARTH
REF_FRAME      = TEME
TIME_SYSTEM    = UTC
MEAN_ELEMENT_THEORY = SGP/SGP4

EPOCH          = 2025-11-15T20:00:01.999008
MEAN_MOTION    = 15.49555661
ECCENTRICITY   = .0000711
INCLINATION    = 53.1602
RA_OF_ASC_NODE = 233.0789
ARG_OF_PERICENTER = 113.9606
MEAN_ANOMALY   = 345.0414

EPHEMERIS_TYPE = 0
CLASSIFICATION_TYPE = U
NORAD_CAT_ID   = 66165
ELEMENT_SET_NO = 999
REV_AT_EPOCH   = 457
BSTAR          = -.77633E-2
MEAN_MOTION_DOT = -.413699E-2
MEAN_MOTION_DDOT = 0

CCSDS_OMM_VERS = 2.0
CREATION_DATE  = 
ORIGINATOR     = 

OBJECT_NAME    = STARLINK-35624
OBJECT_ID      = 2025-240W
CENTER_NAME    = EARTH
REF_FRAME      = TEME
TIME_SYSTEM    = UTC
MEAN_ELEMENT_THEORY = SGP/SGP4

EPOCH          = 2025-11-15T20:00:01.999008
MEAN_MOTION    = 15.49530775
ECCENTRICITY   = .0000957
INCLINATION    = 53.1603
RA_OF_ASC_NODE = 233.0671
ARG_OF_PERICENTER = 152.5236
MEAN_ANOMALY   = 312.2392

EPHEMERIS_TYPE = 0
CLASSIFICATION_TYPE = U
NORAD_CAT_ID   = 66166
ELEMENT_SET_NO = 999
REV_AT_EPOCH   = 457
BSTAR          = -.87309E-2
MEAN_MOTION_DOT = -.461993E-2
MEAN_MOTION_DDOT = 0

