STARLINK-35580          
1 66155U 25240K   25319.83335647 -.00079039  00000+0 -14261-2 0  9990
2 66155  53.1598 233.4597 0001147  94.2718 175.9889 15.49335615  4578
STARLINK-35621          
1 66156U 25240L   25319.83335647 -.00058202  00000+0 -10455-2 0  9991
2 66156  53.1597 233.4563 0001318  96.2239 175.9520 15.49326431  4579
STARLINK-35594          
1 66157U 25240M   25319.83335647  .00066180  00000+0  11893-2 0  9991
2 66157  53.1598 233.4524 0001059 117.1122 156.8669 15.49275171  4570
STARLINK-35587          
1 66158U 25240N   25319.83335647 -.02081908  00000+0 -43641-1 0  9996
2 66158  53.1597 233.4484 0001018  92.0564 183.5162 15.48303247  4571
STARLINK-35586          
1 66159U 25240P   25319.83335647 -.00076467  00000+0 -13790-2 0  9992
2 66159  53.1598 233.4444 0001367  91.3716 186.5586 15.49335044  4571
STARLINK-35636          
1 66160U 25240Q   25319.83335647 -.02100764  00000+0 -45623-1 0  9993
2 66160  53.1601 233.4387 0001047 112.4240 167.7022 15.47328723  4576
STARLINK-35635          
1 66161U 25240R   25319.83335647 -.02054953  00000+0 -49563-1 0  9999
2 66161  53.1597 233.4601 0001263 108.0990 161.3648 15.44219630  4570
STARLINK-35633          
1 66162U 25240S   25319.83335647 -.00456043  00000+0 -86111-2 0  9995
2 66162  53.1604 233.0871 0000995 146.1795 308.9990 15.49533223  4573
STARLINK-35607          
1 66163U 25240T   25319.83335647 -.00459305  00000+0 -86759-2 0  9998
2 66163  53.1603 233.0834 0001004 145.2056 311.8883 15.49534730  4572
STARLINK-35614          
1 66164U 25240U   25319.83335647 -.00484116  00000+0 -91487-2 0  9991
2 66164  53.1602 233.0739 0000844 110.6721 350.2219 15.49612405  4578
STARLINK-35575          
1 66165U 25240V   25319.83335647 -.00413699  00000+0 -77633-2 0  9997
2 66165  53.1602 233.0789 0000711 113.9606 345.0414 15.49555661  4574
STARLINK-35624          
1 66166U 25240W   25319.83335647 -.00461993  00000+0 -87309-2 0  9999
2 66166  53.1603 233.0671 0000957 152.5236 312.2392 15.49530775  4576
